[{"norad_id":"25286","company":"IRIDIUM","tle_line2":"2 25286  86.3964  92.3625 0002324  82.1401 278.0060 14.36527283420342","launch_date":"1998-04-07","type":"LEO","tle_line1":"1 25286U 98021B   25143.79994776  .00000361  00000+0  11639-3 0  9998","satellite_name":"IRIDIUM 63"},{"norad_id":"25319","company":"IRIDIUM","tle_line2":"2 25319  86.3953 105.6914 0004637  95.5128 264.6601 14.40943882419565","launch_date":"1998-05-02","type":"LEO","tle_line1":"1 25319U 98026A   25143.88732686  .00000410  00000+0  12169-3 0  9994","satellite_name":"IRIDIUM 69"},{"norad_id":"25320","company":"IRIDIUM","tle_line2":"2 25320  86.3954 100.3517 0003444 124.5597 235.5928 14.41138781420350","launch_date":"1998-05-02","type":"LEO","tle_line1":"1 25320U 98026B   25143.96681933  .00000396  00000+0  11676-3 0  9998","satellite_name":"IRIDIUM 71"},{"norad_id":"25344","company":"IRIDIUM","tle_line2":"2 25344  86.4426  57.0855 0002989  83.1568 276.9977 14.51689088427357","launch_date":"1998-05-17","type":"LEO","tle_line1":"1 25344U 98032C   25144.00569288  .00000504  00000+0  12062-3 0  9996","satellite_name":"IRIDIUM 73"},{"norad_id":"25467","company":"IRIDIUM","tle_line2":"2 25467  86.3649 121.7882 0088758  32.1022 328.5588 15.31053350420200","launch_date":"1998-09-08","type":"LEO","tle_line1":"1 25467U 98051A   25143.65962484  .00025587  00000+0  75206-3 0  9995","satellite_name":"IRIDIUM 82"}]